STARLINK-31428          
1 59367U 24060V   25246.67580956 -.00001211  00000+0 -34516-4 0  9996
2 59367  42.9966 235.8228 0000205  39.5120 320.5746 15.27574009 81461
STARLINK-31419          
1 59368U 24060W   25247.27072129 -.00001359  00000+0 -39899-4 0  9994
2 59368  43.0003 232.5486 0000733 278.6536  81.4232 15.27570055 81559
STARLINK-31583          
1 59369U 24060X   25247.23233398 -.00001887  00000+0 -59085-4 0  9993
2 59369  43.0057 221.8716 0001685 250.5481 109.5189 15.27569765 81673
STARLINK-31461          
1 59370U 24060Y   25247.24389990 -.00000205  00000+0  20606-5 0  9996
2 59370  43.0012 221.9615 0000866 275.3376  84.7377 15.27573549 81615
STARLINK-31641          
1 59374U 24062A   25247.16554241 -.00000234  00000+0  42143-5 0  9998
2 59374  53.1625  44.9024 0001430  88.6042 271.5123 15.30179768 81064
STARLINK-31430          
1 59375U 24062B   25247.15814995 -.00002276  00000+0 -64759-4 0  9998
2 59375  53.1618  44.8485 0001150  97.1558 262.9574 15.30190047 81071
STARLINK-31695          
1 59376U 24062C   25247.16595015 -.00000875  00000+0 -17448-4 0  9995
2 59376  53.1627  42.0609 0000904  81.3067 278.8036 15.30189169 81078
STARLINK-31716          
1 59377U 24062D   25247.00210511 -.00002747  00000+0 -80738-4 0  9996
2 59377  53.1599 354.1667 0000945 132.8668 227.2413 15.30169365 81727
STARLINK-31710          
1 59378U 24062E   25246.71929565  .00000920  00000+0  43204-4 0  9996
2 59378  53.1600  44.2474 0001032  79.7975 280.3142 15.30188543 81001
STARLINK-31698          
1 59379U 24062F   25247.16279708  .00002708  00000+0  10359-3 0  9994
2 59379  53.1620  42.0539 0001287  89.6558 270.4591 15.30171843 81071
STARLINK-31680          
1 59380U 24062G   25246.77259109 -.00000215  00000+0  48646-5 0  9999
2 59380  53.1609  46.7106 0001267  98.9109 261.2035 15.30185221 80978
STARLINK-31713          
1 59381U 24062H   25247.15183414 -.00001744  00000+0 -46819-4 0  9996
2 59381  53.1618  44.8133 0001337  81.4962 278.6191 15.30170475 81038
STARLINK-31705          
1 59382U 24062J   25246.71612535 -.00002105  00000+0 -59002-4 0  9999
2 59382  53.1597  44.2281 0000628  70.2279 289.8789 15.30184341 81003
STARLINK-31715          
1 59384U 24062L   25247.15645375 -.00000492  00000+0 -45117-5 0  9998
2 59384  53.1620  42.0003 0000815  73.7604 286.3487 15.30183651 81110
STARLINK-31717          
1 59385U 24062M   25246.72564472 -.00008570  00000+0 -27796-3 0  9995
2 59385  53.1603  44.2853 0001204  82.1738 277.9400 15.30151347 81033
STARLINK-31688          
1 59386U 24062N   25247.14865321 -.00001350  00000+0 -33452-4 0  9996
2 59386  53.1601  44.7930 0001579  95.9857 264.1324 15.30186799 81034
STARLINK-31714          
1 59387U 24062P   25246.72879944 -.00001121  00000+0 -25735-4 0  9997
2 59387  53.1605  44.3045 0001081  74.5170 285.5950 15.30183540 80998
STARLINK-31643          
1 59388U 24062Q   25246.72246038  .00003420  00000+0  12754-3 0  9998
2 59388  53.1602  44.2684 0001195  88.3356 271.7782 15.30195843 81045
STARLINK-31647          
1 59389U 24062R   25246.73407850 -.00000043  00000+0  10666-4 0  9991
2 59389  53.1630  44.3743 0001245  97.2069 262.9073 15.30188436 81045
STARLINK-31649          
1 59390U 24062S   25247.16911234  .00002569  00000+0  98844-4 0  9995
2 59390  53.1631  42.0771 0001604  90.4460 269.6725 15.30201753 81117
STARLINK-31644          
1 59391U 24062T   25247.14549081 -.00001096  00000+0 -24902-4 0  9991
2 59391  53.1613  44.7728 0001062 101.3000 258.8120 15.30180835 81070
STARLINK-31626          
1 59392U 24062U   25247.15328771 -.00001006  00000+0 -21846-4 0  9999
2 59392  53.1611  41.9763 0001326 101.2885 258.8265 15.30181843 81115
STARLINK-31443          
1 59393U 24062V   25247.13804767 -.00001426  00000+0 -36065-4 0  9997
2 59393  53.1622  29.6276 0001159  85.1279 274.9854 15.30183945 81287
STARLINK-31607          
1 59394U 24062W   25247.15962044 -.00001084  00000+0 -24484-4 0  9995
2 59394  53.1618  42.0165 0001375 103.3322 256.7833 15.30183107 81107
STARLINK-31608          
1 59397U 24062X   25246.73196082  .00000389  00000+0  25259-4 0  9998
2 59397  53.1628  44.3267 0001520 104.8252 255.2917 15.30190072 80991
STARLINK-31534          
1 59398U 24064A   25247.09986898  .00000882  00000+0  41569-4 0  9993
2 59398  43.0032  29.5600 0002049 277.1970  82.8649 15.27583580 80636
STARLINK-31544          
1 59399U 24064B   25247.08588966  .00004579  00000+0  17579-3 0  9997
2 59399  42.9987  30.3176 0001702 287.6650  72.4016 15.27587858 80688
STARLINK-31545          
1 59400U 24064C   25247.11144193  .00002280  00000+0  92339-4 0  9999
2 59400  43.0009  29.6497 0001426 288.0961  71.9735 15.27591174 80697
STARLINK-31507          
1 59401U 24064D   25247.11788634  .00001404  00000+0  60575-4 0  9998
2 59401  43.0043  29.6920 0001564 268.8884  91.1789 15.27564429 80630
STARLINK-31543          
1 59402U 24064E   25246.75125585 -.00000409  00000+0 -53540-5 0  9999
2 59402  43.0027  32.1042 0000841 297.9529  62.1238 15.27578586 80639
STARLINK-31366          
1 59403U 24064F   25247.12942698  .00001147  00000+0  51222-4 0  9996
2 59403  43.0047  29.7811 0002916 282.1931  77.8594 15.27584074 80699
STARLINK-31374          
1 59404U 24064G   25247.23963543 -.00004028  00000+0 -13713-3 0  9996
2 59404  43.0054 338.0818 0000922 300.8667  59.2094 15.27534629 81040
STARLINK-31400          
1 59405U 24064H   25247.10374344 -.00003403  00000+0 -11428-3 0  9995
2 59405  43.0026  29.5880 0000878 262.8731  97.2021 15.27560426 80696
STARLINK-31391          
1 59406U 24064J   25247.10758412  .00000239  00000+0  18227-4 0  9995
2 59406  43.0064  29.6178 0002103 279.3926  80.6688 15.27580449 80694
STARLINK-31387          
1 59407U 24064K   25246.68971193  .00006013  00000+0  22776-3 0  9990
2 59407  43.0002  32.5015 0001531 262.9958  97.0719 15.27594027 80624
STARLINK-31396          
1 59409U 24064M   25246.66160514  .00003909  00000+0  15144-3 0  9999
2 59409  42.9968  21.8933 0000458 254.5425 105.5376 15.27590616 80688
STARLINK-31412          
1 59410U 24064N   25247.12558189  .00002402  00000+0  96788-4 0  9993
2 59410  43.0042  29.7482 0001879 287.3645  72.7001 15.27578861 80696
STARLINK-31483          
1 59411U 24064P   25246.67943336  .00002676  00000+0  10668-3 0  9990
2 59411  43.0004  32.4191 0000742 266.7465  93.3301 15.27588501 80629
STARLINK-31568          
1 59412U 24064Q   25246.68200305  .00006544  00000+0  24692-3 0  9994
2 59412  43.0002  32.4353 0001312 262.3788  97.6915 15.27605255 80626
STARLINK-31615          
1 59413U 24064R   25247.06758136 -.00000469  00000+0 -74971-5 0  9997
2 59413  43.0039  23.2288 0001979 281.1612  78.9017 15.27577603 80761
STARLINK-31457          
1 59414U 24064S   25247.07014785  .00004189  00000+0  16175-3 0  9995
2 59414  43.0029  23.2479 0001410 269.9896  90.0794 15.27563913 80767
STARLINK-31398          
1 59415U 24064T   25247.12173220 -.00004174  00000+0 -14222-3 0  9999
2 59415  43.0033  29.7176 0000499 303.6431  56.4373 15.27591128 80695
STARLINK-31399          
1 59416U 24064U   25247.11528002 -.00003143  00000+0 -10468-3 0  9994
2 59416  43.0025  29.6695 0003669 267.1974  92.8458 15.27579245 80694
STARLINK-31401          
1 59417U 24064V   25246.67138368  .00003395  00000+0  13278-3 0  9996
2 59417  43.0051  25.4363 0003001 278.8904  81.1608 15.27600889 80453
STARLINK-31414          
1 59418U 24064W   25246.67557722  .00008716  00000+0  32574-3 0  9998
2 59418  42.9946  32.3875 0000882 127.4679 232.6253 15.27595502 80625
STARLINK-31415          
1 59419U 24064X   25247.09358520  .00000510  00000+0  28043-4 0  9992
2 59419  43.0015  30.3742 0000875 270.4792  89.5959 15.27594995 80686
STARLINK-31466          
1 59420U 24064Y   25246.69742499  .00001046  00000+0  47526-4 0  9993
2 59420  43.0022  32.5589 0001377 284.8299  75.2400 15.27580049 80620
STARLINK-11087 [DTC]    
1 59421U 24065A   25246.83549061 -.00001978  00000+0 -11465-4 0  9990
2 59421  53.1585 295.1483 0001621  73.5381 286.5815 15.69701420 82166
STARLINK-11090 [DTC]    
1 59422U 24065B   25246.43873065 -.00004477  00000+0 -32072-4 0  9995
2 59422  53.1587 296.9306 0001845  79.2277 280.8948 15.69729619 82127
STARLINK-11093 [DTC]    
1 59423U 24065C   25247.14404197 -.00004137  00000+0 -29349-4 0  9997
2 59423  53.1593 293.5126 0000831  16.4814 343.6231 15.69676770 82225
STARLINK-11083 [DTC]    
1 59424U 24065D   25247.14893970 -.00002170  00000+0 -13060-4 0  9997
2 59424  53.1588 293.5443 0001415  99.4810 260.6368 15.69691183 82176
STARLINK-11085 [DTC]    
1 59425U 24065E   25247.13422734 -.00003166  00000+0 -21300-4 0  9995
2 59425  53.1582 293.4486 0001326  82.3419 277.7750 15.69684519 82173
STARLINK-11089 [DTC]    
1 59426U 24065F   25247.15875252 -.00003319  00000+0 -22551-4 0  9994
2 59426  53.1586 293.6250 0001682  80.0124 280.1084 15.69697660 82227
STARLINK-31757          
1 59427U 24065G   25247.23980979 -.00000424  00000+0 -21949-5 0  9992
2 59427  53.1614  67.6885 0001279  85.0010 275.1137 15.30188576 80381
STARLINK-31773          
1 59429U 24065J   25247.22134961 -.00001091  00000+0 -24738-4 0  9994
2 59429  53.1605  69.6933 0001184  92.7067 267.4069 15.30178490 80350
STARLINK-31772          
1 59430U 24065K   25247.22398039 -.00001487  00000+0 -38121-4 0  9994
2 59430  53.1620  67.5756 0001282  90.9936 269.1212 15.30184480 80381
STARLINK-31613          
1 59431U 24065L   25247.23662013  .00002181  00000+0  85715-4 0  9993
2 59431  53.1609  67.6587 0001196  88.9223 271.1915 15.30210553 80386
STARLINK-31780          
1 59432U 24065M   25246.78682045 -.00000271  00000+0  29670-5 0  9998
2 59432  53.1611  69.8249 0000894  75.4598 284.6502 15.30189946 80314
STARLINK-31740          
1 59433U 24065N   25247.21923667 -.00001443  00000+0 -36636-4 0  9998
2 59433  53.1608  69.6805 0001141  98.9731 261.1399 15.30184779 80359
